CCSDS_OMM_VERS = 2.0
CREATION_DATE  = 
ORIGINATOR     = 

OBJECT_NAME    = STARLINK-36916
OBJECT_ID      = 2026-040H
CENTER_NAME    = EARTH
REF_FRAME      = TEME
TIME_SYSTEM    = UTC
MEAN_ELEMENT_THEORY = SGP/SGP4

EPOCH          = 2026-03-25T19:28:03.714240
MEAN_MOTION    = 15.75319410
ECCENTRICITY   = .00020536
INCLINATION    = 97.2858
RA_OF_ASC_NODE = 34.0595
ARG_OF_PERICENTER = 110.0346
MEAN_ANOMALY   = 250.1140

EPHEMERIS_TYPE = 0
CLASSIFICATION_TYPE = U
NORAD_CAT_ID   = 68022
ELEMENT_SET_NO = 999
REV_AT_EPOCH   = 389
BSTAR          = .17035138E-2
MEAN_MOTION_DOT = .263429E-2
MEAN_MOTION_DDOT = 0

CCSDS_OMM_VERS = 2.0
CREATION_DATE  = 
ORIGINATOR     = 

OBJECT_NAME    = STARLINK-36871
OBJECT_ID      = 2026-040J
CENTER_NAME    = EARTH
REF_FRAME      = TEME
TIME_SYSTEM    = UTC
MEAN_ELEMENT_THEORY = SGP/SGP4

EPOCH          = 2026-03-26T03:04:57.343008
MEAN_MOTION    = 15.75461172
ECCENTRICITY   = .00033051
INCLINATION    = 97.2872
RA_OF_ASC_NODE = 34.3918
ARG_OF_PERICENTER = 121.2754
MEAN_ANOMALY   = 238.8835

EPHEMERIS_TYPE = 0
CLASSIFICATION_TYPE = U
NORAD_CAT_ID   = 68023
ELEMENT_SET_NO = 999
REV_AT_EPOCH   = 394
BSTAR          = .2406329E-2
MEAN_MOTION_DOT = .379656E-2
MEAN_MOTION_DDOT = 0

CCSDS_OMM_VERS = 2.0
CREATION_DATE  = 
ORIGINATOR     = 

OBJECT_NAME    = STARLINK-36891
OBJECT_ID      = 2026-040K
CENTER_NAME    = EARTH
REF_FRAME      = TEME
TIME_SYSTEM    = UTC
MEAN_ELEMENT_THEORY = SGP/SGP4

EPOCH          = 2026-03-26T03:03:56.304864
MEAN_MOTION    = 15.75423805
ECCENTRICITY   = .00024231
INCLINATION    = 97.2855
RA_OF_ASC_NODE = 34.3937
ARG_OF_PERICENTER = 136.2027
MEAN_ANOMALY   = 223.9430

EPHEMERIS_TYPE = 0
CLASSIFICATION_TYPE = U
NORAD_CAT_ID   = 68024
ELEMENT_SET_NO = 999
REV_AT_EPOCH   = 394
BSTAR          = .27594431E-2
MEAN_MOTION_DOT = .437664E-2
MEAN_MOTION_DDOT = 0

CCSDS_OMM_VERS = 2.0
CREATION_DATE  = 
ORIGINATOR     = 

OBJECT_NAME    = STARLINK-36378
OBJECT_ID      = 2026-040L
CENTER_NAME    = EARTH
REF_FRAME      = TEME
TIME_SYSTEM    = UTC
MEAN_ELEMENT_THEORY = SGP/SGP4

EPOCH          = 2026-03-26T07:36:20.897856
MEAN_MOTION    = 15.75218108
ECCENTRICITY   = .00010542
INCLINATION    = 97.2858
RA_OF_ASC_NODE = 34.5983
ARG_OF_PERICENTER = 97.1684
MEAN_ANOMALY   = 262.9701

EPHEMERIS_TYPE = 0
CLASSIFICATION_TYPE = U
NORAD_CAT_ID   = 68025
ELEMENT_SET_NO = 999
REV_AT_EPOCH   = 397
BSTAR          = .12415273E-2
MEAN_MOTION_DOT = .189447E-2
MEAN_MOTION_DDOT = 0

CCSDS_OMM_VERS = 2.0
CREATION_DATE  = 
ORIGINATOR     = 

OBJECT_NAME    = STARLINK-36884
OBJECT_ID      = 2026-040M
CENTER_NAME    = EARTH
REF_FRAME      = TEME
TIME_SYSTEM    = UTC
MEAN_ELEMENT_THEORY = SGP/SGP4

EPOCH          = 2026-03-26T04:33:52.627680
MEAN_MOTION    = 15.75376607
ECCENTRICITY   = .00013019
INCLINATION    = 97.2853
RA_OF_ASC_NODE = 34.4627
ARG_OF_PERICENTER = 105.8276
MEAN_ANOMALY   = 254.3133

EPHEMERIS_TYPE = 0
CLASSIFICATION_TYPE = U
NORAD_CAT_ID   = 68026
ELEMENT_SET_NO = 999
REV_AT_EPOCH   = 395
BSTAR          = .27378154E-2
MEAN_MOTION_DOT = .433133E-2
MEAN_MOTION_DDOT = 0

CCSDS_OMM_VERS = 2.0
CREATION_DATE  = 
ORIGINATOR     = 

OBJECT_NAME    = STARLINK-36940
OBJECT_ID      = 2026-040N
CENTER_NAME    = EARTH
REF_FRAME      = TEME
TIME_SYSTEM    = UTC
MEAN_ELEMENT_THEORY = SGP/SGP4

EPOCH          = 2026-03-26T07:24:09.076896
MEAN_MOTION    = 15.75243549
ECCENTRICITY   = .00009596
INCLINATION    = 97.2856
RA_OF_ASC_NODE = 34.6154
ARG_OF_PERICENTER = 114.0950
MEAN_ANOMALY   = 246.0416

EPHEMERIS_TYPE = 0
CLASSIFICATION_TYPE = U
NORAD_CAT_ID   = 68027
ELEMENT_SET_NO = 999
REV_AT_EPOCH   = 397
BSTAR          = .24180018E-2
MEAN_MOTION_DOT = .377846E-2
MEAN_MOTION_DDOT = 0

CCSDS_OMM_VERS = 2.0
CREATION_DATE  = 
ORIGINATOR     = 

OBJECT_NAME    = STARLINK-36253
OBJECT_ID      = 2026-040P
CENTER_NAME    = EARTH
REF_FRAME      = TEME
TIME_SYSTEM    = UTC
MEAN_ELEMENT_THEORY = SGP/SGP4

EPOCH          = 2026-03-26T06:00:02.000160
MEAN_MOTION    = 15.44345284
ECCENTRICITY   = .00017376
INCLINATION    = 97.2843
RA_OF_ASC_NODE = 34.1091
ARG_OF_PERICENTER = 94.4616
MEAN_ANOMALY   = 337.5996

EPHEMERIS_TYPE = 0
CLASSIFICATION_TYPE = U
NORAD_CAT_ID   = 68028
ELEMENT_SET_NO = 999
REV_AT_EPOCH   = 519
BSTAR          = -.42676511E-1
MEAN_MOTION_DOT = -.1748044E-1
MEAN_MOTION_DDOT = 0

CCSDS_OMM_VERS = 2.0
CREATION_DATE  = 
ORIGINATOR     = 

OBJECT_NAME    = STARLINK-36944
OBJECT_ID      = 2026-040Q
CENTER_NAME    = EARTH
REF_FRAME      = TEME
TIME_SYSTEM    = UTC
MEAN_ELEMENT_THEORY = SGP/SGP4

EPOCH          = 2026-03-26T07:35:20.004000
MEAN_MOTION    = 15.75210655
ECCENTRICITY   = .00013254
INCLINATION    = 97.2866
RA_OF_ASC_NODE = 34.5966
ARG_OF_PERICENTER = 116.9593
MEAN_ANOMALY   = 243.1808

EPHEMERIS_TYPE = 0
CLASSIFICATION_TYPE = U
NORAD_CAT_ID   = 68029
ELEMENT_SET_NO = 999
REV_AT_EPOCH   = 397
BSTAR          = .11903206E-2
MEAN_MOTION_DOT = .181397E-2
MEAN_MOTION_DDOT = 0

CCSDS_OMM_VERS = 2.0
CREATION_DATE  = 
ORIGINATOR     = 

OBJECT_NAME    = STARLINK-36942
OBJECT_ID      = 2026-040R
CENTER_NAME    = EARTH
REF_FRAME      = TEME
TIME_SYSTEM    = UTC
MEAN_ELEMENT_THEORY = SGP/SGP4

EPOCH          = 2026-03-26T02:59:52.331136
MEAN_MOTION    = 15.75255937
ECCENTRICITY   = .00010847
INCLINATION    = 97.2852
RA_OF_ASC_NODE = 34.4007
ARG_OF_PERICENTER = 93.4779
MEAN_ANOMALY   = 266.6611

EPHEMERIS_TYPE = 0
CLASSIFICATION_TYPE = U
NORAD_CAT_ID   = 68030
ELEMENT_SET_NO = 999
REV_AT_EPOCH   = 394
BSTAR          = .16411663E-2
MEAN_MOTION_DOT = .252766E-2
MEAN_MOTION_DDOT = 0

CCSDS_OMM_VERS = 2.0
CREATION_DATE  = 
ORIGINATOR     = 

OBJECT_NAME    = STARLINK-36913
OBJECT_ID      = 2026-040S
CENTER_NAME    = EARTH
REF_FRAME      = TEME
TIME_SYSTEM    = UTC
MEAN_ELEMENT_THEORY = SGP/SGP4

EPOCH          = 2026-03-26T02:58:55.287264
MEAN_MOTION    = 15.75268576
ECCENTRICITY   = .00049138
INCLINATION    = 97.2863
RA_OF_ASC_NODE = 34.4025
ARG_OF_PERICENTER = 148.9156
MEAN_ANOMALY   = 211.2401

EPHEMERIS_TYPE = 0
CLASSIFICATION_TYPE = U
NORAD_CAT_ID   = 68031
ELEMENT_SET_NO = 999
REV_AT_EPOCH   = 394
BSTAR          = .16325682E-2
MEAN_MOTION_DOT = .251645E-2
MEAN_MOTION_DDOT = 0

CCSDS_OMM_VERS = 2.0
CREATION_DATE  = 
ORIGINATOR     = 

OBJECT_NAME    = STARLINK-36935
OBJECT_ID      = 2026-040T
CENTER_NAME    = EARTH
REF_FRAME      = TEME
TIME_SYSTEM    = UTC
MEAN_ELEMENT_THEORY = SGP/SGP4

EPOCH          = 2026-03-26T07:26:10.345344
MEAN_MOTION    = 15.75424696
ECCENTRICITY   = .00037189
INCLINATION    = 97.2872
RA_OF_ASC_NODE = 34.6099
ARG_OF_PERICENTER = 202.4660
MEAN_ANOMALY   = 157.6443

EPHEMERIS_TYPE = 0
CLASSIFICATION_TYPE = U
NORAD_CAT_ID   = 68032
ELEMENT_SET_NO = 999
REV_AT_EPOCH   = 397
BSTAR          = .25660285E-2
MEAN_MOTION_DOT = .405471E-2
MEAN_MOTION_DDOT = 0

CCSDS_OMM_VERS = 2.0
CREATION_DATE  = 
ORIGINATOR     = 

OBJECT_NAME    = STARLINK-36947
OBJECT_ID      = 2026-040U
CENTER_NAME    = EARTH
REF_FRAME      = TEME
TIME_SYSTEM    = UTC
MEAN_ELEMENT_THEORY = SGP/SGP4

EPOCH          = 2026-03-26T02:57:50.218560
MEAN_MOTION    = 15.75477602
ECCENTRICITY   = .00033748
INCLINATION    = 97.2851
RA_OF_ASC_NODE = 34.4032
ARG_OF_PERICENTER = 116.3583
MEAN_ANOMALY   = 243.8029

EPHEMERIS_TYPE = 0
CLASSIFICATION_TYPE = U
NORAD_CAT_ID   = 68033
ELEMENT_SET_NO = 999
REV_AT_EPOCH   = 394
BSTAR          = .24510325E-2
MEAN_MOTION_DOT = .387339E-2
MEAN_MOTION_DDOT = 0

CCSDS_OMM_VERS = 2.0
CREATION_DATE  = 
ORIGINATOR     = 

OBJECT_NAME    = STARLINK-36939
OBJECT_ID      = 2026-040V
CENTER_NAME    = EARTH
REF_FRAME      = TEME
TIME_SYSTEM    = UTC
MEAN_ELEMENT_THEORY = SGP/SGP4

EPOCH          = 2026-03-26T07:28:13.222560
MEAN_MOTION    = 15.75210433
ECCENTRICITY   = .00015747
INCLINATION    = 97.2850
RA_OF_ASC_NODE = 34.6089
ARG_OF_PERICENTER = 95.3724
MEAN_ANOMALY   = 264.7721

EPHEMERIS_TYPE = 0
CLASSIFICATION_TYPE = U
NORAD_CAT_ID   = 68034
ELEMENT_SET_NO = 999
REV_AT_EPOCH   = 397
BSTAR          = .23433337E-2
MEAN_MOTION_DOT = .365085E-2
MEAN_MOTION_DDOT = 0

CCSDS_OMM_VERS = 2.0
CREATION_DATE  = 
ORIGINATOR     = 

OBJECT_NAME    = STARLINK-36943
OBJECT_ID      = 2026-040W
CENTER_NAME    = EARTH
REF_FRAME      = TEME
TIME_SYSTEM    = UTC
MEAN_ELEMENT_THEORY = SGP/SGP4

EPOCH          = 2026-03-26T07:26:41.906400
MEAN_MOTION    = 15.75181822
ECCENTRICITY   = .00019693
INCLINATION    = 97.2857
RA_OF_ASC_NODE = 34.6134
ARG_OF_PERICENTER = 84.2440
MEAN_ANOMALY   = 275.9050

EPHEMERIS_TYPE = 0
CLASSIFICATION_TYPE = U
NORAD_CAT_ID   = 68035
ELEMENT_SET_NO = 999
REV_AT_EPOCH   = 510
BSTAR          = .15669853E-2
MEAN_MOTION_DOT = .240209E-2
MEAN_MOTION_DDOT = 0

CCSDS_OMM_VERS = 2.0
CREATION_DATE  = 
ORIGINATOR     = 

OBJECT_NAME    = STARLINK-36906
OBJECT_ID      = 2026-040X
CENTER_NAME    = EARTH
REF_FRAME      = TEME
TIME_SYSTEM    = UTC
MEAN_ELEMENT_THEORY = SGP/SGP4

EPOCH          = 2026-03-25T10:08:31.309440
MEAN_MOTION    = 15.75240958
ECCENTRICITY   = .00022203
INCLINATION    = 97.2841
RA_OF_ASC_NODE = 33.6748
ARG_OF_PERICENTER = 89.8326
MEAN_ANOMALY   = 270.3193

EPHEMERIS_TYPE = 0
CLASSIFICATION_TYPE = U
NORAD_CAT_ID   = 68036
ELEMENT_SET_NO = 999
REV_AT_EPOCH   = 383
BSTAR          = .135106E-2
MEAN_MOTION_DOT = .206807E-2
MEAN_MOTION_DDOT = 0

